3D-B/Biela,e,7.8791,276.1975,192.2398,3.540449,0.1479506,0.76765270,274.4618,11/28.0/2023,2000,g 11.0,6.0
# From MPEC 2023-FK0
4P/Faye,e,8.0089,192.9237,207.0812,3.827952,0.1315995,0.57682046,106.5868,11/28.0/2023,2000,g  8.0,6.0
# From  27, 116
5D/Brorsen,e,18.6222,94.9068,20.3058,3.158083,0.1756179,0.83764230,39.4958,11/28.0/2023,2000,g 10.5,6.0
# From MPEC 2022-WD2
6P/d'Arrest,e,19.5058,138.9465,178.0915,3.497342,0.1506943,0.61219357,120.7920,11/28.0/2023,2000,g  7.5,16.0
# From MPEC 2023-A50
7P/Pons-Winnecke,e,22.3938,93.3028,172.5039,3.407687,0.1566804,0.63888447,143.3942,11/28.0/2023,2000,g 10.0,6.0
# From MPEC 2022-HC2
8P/Tuttle,e,54.9507,270.1734,207.4757,5.703438,0.0723601,0.82038593,59.4878,11/28.0/2023,2000,g  8.0,8.0
# From MPEC 2023-VM5
9P/Tempel,e,10.6174,68.0535,180.6859,3.167972,0.1747962,0.51096098,110.1356,11/28.0/2023,2000,g  5.5,10.0
# From MPEC 2023-W26
10P/Tempel,e,12.0315,117.8123,195.5294,3.062323,0.1839194,0.53775553,180.1070,11/28.0/2023,2000,g  5.0,10.0
# From MPEC 2023-A50
11P/Tempel-Swift-LINEAR,e,14.4337,238.8656,168.0156,3.283728,0.1656355,0.57758437,181.5386,11/28.0/2023,2000,g 17.0,4.0
# From MPEC 2023-W26
12P/Pons-Brooks,e,74.1911,255.8564,198.9896,17.19428,0.0138238,0.95459038,357.9939,11/28.0/2023,2000,g  5.0,6.0
# From MPEC 2023-W26
13P/Olbers,e,44.6536,85.8578,64.4059,16.91284,0.0141703,0.93050071,356.9530,11/28.0/2023,2000,g  5.0,6.0
# From MPEC 2021-F20
14P/Wolf,e,27.9207,202.0805,159.1130,4.257337,0.1122011,0.35710140,244.9446,11/28.0/2023,2000,g  5.5,12.0
# From MPEC 2022-ED3
15P/Finlay,e,6.7950,13.7330,347.8729,3.509383,0.1499194,0.71679171,130.0572,11/28.0/2023,2000,g 12.0,4.0
# From MPEC 2022-X67
16P/Brooks,e,3.0108,138.8593,245.3054,3.660220,0.1407483,0.48629686,134.1957,11/28.0/2023,2000,g  7.5,10.0
# From MPEC 2023-J29
17P/Holmes,e,19.0204,326.6282,24.6050,3.639320,0.1419625,0.42712811,143.5519,11/28.0/2023,2000,g 10.0,6.0
# From  19, 80
18D/Perrine-Mrkos,e,17.656,158.471,238.222,3.88216,0.128853,0.5894851,324.539,11/28.0/2023,2000,g  9.0,4.0
# From MPEC 2023-KD6
19P/Borrelly,e,29.3125,74.2198,351.9643,3.607258,0.1438594,0.63789631,95.5253,11/28.0/2023,2000,g  4.5,10.0
# From MPEC 2021-F20
21P/Giacobini-Zinner,e,32.0564,195.3435,172.9105,3.493877,0.1509186,0.71121813,287.0258,11/28.0/2023,2000,g 11.4,4.0
# From MPEC 2023-SQ0
22P/Kopff,e,4.7471,120.6435,162.9443,3.434808,0.1548283,0.55030538,95.9389,11/28.0/2023,2000,g  3.0,10.4
# From MPC 14747
23P/Brorsen-Metcalf,e,19.3214,311.7047,129.4703,16.94085,0.0141352,0.97240841,0.0000,08/19.1999/1989,2000,g 10.0,6.0
# From MPC110085
24P/Schaumasse,e,11.5062,78.3897,58.3765,4.055708,0.1206713,0.70786191,266.7767,11/28.0/2023,2000,g  6.5,14.0
# From NK 378
25D/Neujmin 2,e,2.8018,280.2768,244.6622,3.219665,0.1706035,0.55218864,269.5930,11/28.0/2023,2000,g 12.5,6.0
# From MPEC 2023-RF3
26P/Grigg-Skjellerup,e,22.4330,211.5405,2.1466,3.016063,0.1881670,0.64062513,354.8549,11/28.0/2023,2000,g 12.0,16.0
# From MPC 78188
27P/Crommelin,e,29.4155,250.6956,195.8360,9.179690,0.0354374,0.91935819,159.7032,11/28.0/2023,2000,g 12.0,8.0
# From MPEC 2023-UR6
28P/Neujmin,e,14.3068,346.3617,347.4795,6.983144,0.0534106,0.77334539,52.9545,11/28.0/2023,2000,g  8.5,6.0
# From MPEC 2023-W26
29P/Schwassmann-Wachmann,e,9.3604,312.4047,51.7805,6.051684,0.0662048,0.04432483,110.7017,11/28.0/2023,2000,g  4.0,4.0
# From MPEC 2023-W26
30P/Reinmuth,e,8.0506,117.2787,9.4459,3.738172,0.1363689,0.51496662,324.1190,11/28.0/2023,2000,g  9.5,6.0
# From MPEC 2023-R20
31P/Schwassmann-Wachmann,e,4.5492,114.1090,17.8277,4.233908,0.1131337,0.19270619,181.9857,11/28.0/2023,2000,g  5.0,8.0
# From MPEC 2023-W26
32P/ComasSola,e,9.9208,54.5286,54.6658,4.556511,0.1013341,0.55566866,345.3486,11/28.0/2023,2000,g  6.5,8.0
# From MPEC 2023-J29
33P/Daniel,e,22.2941,66.2892,20.4155,4.090819,0.1191211,0.45205898,318.3806,11/28.0/2023,2000,g 10.0,12.0
# From  9, 314
34D/Gale,e,10.5828,57.8687,218.0704,5.012126,0.0878357,0.75797275,272.0324,11/28.0/2023,2000,g  9.0,4.0
# From  15, 452
35P/Herschel-Rigollet,e,65.216,356.626,29.020,28.5415,0.006464,0.9744116,0.000,03/10.5936/2092,2000,g  9.0,4.0
# From MPEC 2023-R20
36P/Whipple,e,9.9516,181.8415,201.1264,4.138676,0.1170609,0.26889281,149.1003,11/28.0/2023,2000,g  8.5,6.0
# From MPEC 2021-F20
37P/Forbes,e,8.9482,314.5593,330.0779,3.462599,0.1529680,0.53286584,311.3122,11/28.0/2023,2000,g 13.8,4.0
# From MPEC 2018-S50
38P/Stephan-Oterma,e,18.3926,77.8887,359.5127,11.24565,0.0261353,0.85970985,48.1229,11/28.0/2023,2000,g  3.5,12.0
# From MPEC 2023-VM5
39P/Oterma,e,1.5643,294.1676,105.8289,7.167352,0.0513648,0.20341331,6.5547,11/28.0/2023,2000,g  7.0,6.0
# From MPC100283
40P/Vaisala,e,11.4716,132.6782,48.4304,4.962817,0.0891480,0.63382327,296.3118,11/28.0/2023,2000,g  5.5,12.0
# From MPEC 2023-SQ0
41P/Tuttle-Giacobini-Kresak,e,9.2185,140.9832,62.2316,3.088447,0.1815908,0.65973302,79.9568,11/28.0/2023,2000,g 10.0,16.0
# From MPC 94283
42P/Neujmin,e,3.9897,150.1634,147.2077,4.875290,0.0915595,0.58422514,288.6801,11/28.0/2023,2000,g 13.0,6.0
# From MPEC 2023-VM5
43P/Wolf-Harrington,e,9.3335,244.0032,224.0292,4.322555,0.1096714,0.43541799,292.3896,11/28.0/2023,2000,g  8.0,6.0
# From MPEC 2023-T65
44P/Reinmuth,e,5.8969,286.4271,58.0249,3.687907,0.1391663,0.42718679,81.2899,11/28.0/2023,2000,g  8.3,6.0
# From MPEC 2022-O01
45P/Honda-Mrkos-Pajdusakova,e,4.3230,87.6980,327.9205,3.056269,0.1844661,0.81774591,106.9775,11/28.0/2023,2000,g 13.5,8.0
# From MPEC 2023-T65
46P/Wirtanen,e,11.7497,82.1643,356.3279,3.091281,0.1813411,0.65879623,328.6085,11/28.0/2023,2000,g 14.0,6.0
# From MPEC 2023-J29
47P/Ashbrook-Jackson,e,13.0383,356.9089,357.8254,4.120638,0.1178304,0.31862998,277.5577,11/28.0/2023,2000,g  1.0,11.2
# From MPEC 2023-FK0
48P/Johnson,e,12.2002,110.0730,216.7663,3.500874,0.1504664,0.42693005,290.6979,11/28.0/2023,2000,g 10.0,6.0
# From MPEC 2023-SQ0
49P/Arend-Rigaux,e,19.0573,118.7927,332.9301,3.569071,0.1461744,0.59882453,286.9595,11/28.0/2023,2000,g 11.3,4.4
# From MPEC 2023-T65
50P/Arend,e,19.1014,355.1724,49.3597,4.088082,0.1192408,0.52979026,340.1081,11/28.0/2023,2000,g  9.5,6.0
# From MPEC 2023-J29
51P/Harrington,e,5.4266,83.6611,269.2408,3.705685,0.1381660,0.54324525,58.4160,11/28.0/2023,2000,g 10.0,8.0
# From NK 3014
51P-A/Harrington,e,5.4269,269.2373,83.6457,3.706982,0.1380935,0.54343361,58.0294,11/28.0/2023,2000,g 10.0,8.0
# From MPEC 2023-J29
51P-D/Harrington,e,5.4271,83.6493,269.2590,3.706042,0.1381461,0.54337493,58.3492,11/28.0/2023,2000,g 16.0,8.0
# From MPEC 2023-VM5
52P/Harrington-Abell,e,10.2317,336.8057,139.5566,3.862971,0.1298141,0.54056792,101.7273,11/28.0/2023,2000,g 13.5,6.0
# From MPEC 2023-TM6
53P/VanBiesbroeck,e,6.6058,148.8369,134.4519,5.434813,0.0777906,0.54992192,215.6215,11/28.0/2023,2000,g  7.7,4.8
# From MPC 89011
54P/de Vico-Swift-NEAT,e,6.0640,358.8514,1.9034,3.786584,0.1337620,0.42638326,322.4308,11/28.0/2023,2000,g  9.0,4.0
# From MPC 31070
55P/Tempel-Tuttle,e,62.5358,235.4187,172.4693,10.34865,0.0296059,0.90594038,279.1638,11/28.0/2023,2000,g  9.0,4.0
# From MPEC 2023-TM6
56P/Slaughter-Burnham,e,8.1572,345.9537,44.1126,5.064822,0.0864685,0.50866299,231.8920,11/28.0/2023,2000,g  8.5,6.0
# From MPEC 2023-VM5
57P/duToit-Neujmin-Delporte,e,2.8524,188.7758,115.1094,3.442735,0.1542939,0.50075812,119.1215,11/28.0/2023,2000,g 12.5,6.0
# From MPEC 2023-J29
58P/Jackson-Neujmin,e,13.1028,159.0672,200.5520,4.089113,0.1191956,0.66245922,152.4858,11/28.0/2023,2000,g 15.5,6.0
# From MPEC 2023-A50
59P/Kearns-Kwee,e,9.3482,312.7612,127.5651,4.481691,0.1038822,0.47663756,196.9777,11/28.0/2023,2000,g  7.0,6.0
# From MPEC 2021-F20
60P/Tsuchinshan,e,3.5813,267.4470,216.9518,3.526900,0.1488039,0.53364099,270.5958,11/28.0/2023,2000,g 11.5,6.0
# From MPEC 2023-W26
61P/Shajn-Schaldach,e,5.9994,162.9618,221.6481,3.688808,0.1391153,0.42362210,55.6843,11/28.0/2023,2000,g  6.0,10.0
# From MPEC 2023-W26
62P/Tsuchinshan,e,4.7386,68.6737,47.2958,3.370846,0.1592560,0.62471171,355.6822,11/28.0/2023,2000,g  8.0,10.0
# From MPC 84320
63P/Wild,e,19.6790,357.9188,168.9171,5.625817,0.0738628,0.65029786,289.6684,11/28.0/2023,2000,g 10.5,6.0
# From MPEC 2023-A50
64P/Swift-Gehrels,e,8.9501,299.8484,97.2386,4.452308,0.1049123,0.68877410,193.8265,11/28.0/2023,2000,g  9.5,12.0
# From MPEC 2023-T65
65P/Gunn,e,9.1759,61.9756,213.7997,3.890454,0.1284410,0.24817928,287.1789,11/28.0/2023,2000,g  5.0,6.0
# From MPEC 2021-F20
66P/duToit,e,18.6395,21.7844,257.4809,6.070911,0.0658906,0.78537470,133.1964,11/28.0/2023,2000,g 15.0,4.0
# From MPEC 2023-J29
67P/Churyumov-Gerasimenko,e,3.8716,36.3291,22.1634,3.457872,0.1532819,0.65000057,115.8326,11/28.0/2023,2000,g 11.0,4.0
# From MPEC 2023-HD1
68P/Klemola,e,11.1090,175.0587,153.2659,4.961108,0.0891941,0.63667591,132.0565,11/28.0/2023,2000,g 12.6,4.0
# From MPEC 2023-A50
69P/Taylor,e,22.0550,104.8039,343.4130,3.883056,0.1288082,0.41431799,220.8391,11/28.0/2023,2000,g  9.5,12.0
# From MPEC 2023-VM5
70P/Kojima,e,6.5995,119.2439,1.7768,3.676623,0.1398075,0.45421181,105.5249,11/28.0/2023,2000,g 11.0,6.0
# From MPEC 2023-VM5
71P/Clark,e,9.4390,59.3846,209.1431,3.140751,0.1770736,0.49388456,54.7331,11/28.0/2023,2000,g  9.8,6.0
# From MPEC 2023-VM5
72P/Denning-Fujikawa,e,10.9487,26.6975,346.7339,4.307055,0.1102639,0.81864675,18.2190,11/28.0/2023,2000,g 17.5,10.0
# From MPEC 2023-RF3
73P/Schwassmann-Wachmann,e,11.2643,69.5311,199.4600,3.091844,0.1812916,0.68686481,83.1567,11/28.0/2023,2000,g 11.5,6.0
# From NK 1613
73P-B/Schwassmann-Wachmann B,e,11.2257,199.4136,69.5460,3.093024,0.1811879,0.68715333,82.3774,11/28.0/2023,2000,g  9.0,4.0
# From NK 2710
73P-C/Schwassmann-Wachmann,e,11.2199,199.4483,69.5372,3.091691,0.1813051,0.68691707,83.1667,11/28.0/2023,2000,g  9.0,4.0
# From NK 934
73P-E/Schwassmann-Wachmann,e,11.2335,199.3893,69.5573,3.096784,0.1808580,0.68760935,80.6398,11/28.0/2023,2000,g  9.0,4.0
# From MPC 56796
73P-G/Schwassmann-Wachmann,e,11.388,69.909,198.772,3.06230,0.183922,0.6933024,359.982,06/08.0/2006,2000,g  9.0,4.0
# From MPC 56796
